API VERSION: 1.2
API SOURCE: NASA/JPL Horizons API



*******************************************************************************
Ephemeris / API_USER Fri Apr  3 11:29:14 2026 Pasadena, USA      / Horizons
*******************************************************************************
Target body name: Mars (499)                      {source: mar099}
Center body name: Earth (399)                     {source: DE441}
Center-site name: BODY CENTER
*******************************************************************************
Start time      : A.D. 2026-Jul-24 07:16:59.9998 TDB
Stop  time      : A.D. 2026-Jul-26 07:16:59.9998 TDB
Step-size       : 60 minutes
*******************************************************************************
Center geodetic : 0.0, 0.0, 0.0                   {E-lon(deg),Lat(deg),Alt(km)}
Center cylindric: 0.0, 0.0, 0.0                   {E-lon(deg),Dxy(km),Dz(km)}
Center radii    : 6378.137, 6378.137, 6356.752 km {Equator_a, b, pole_c}
Output units    : AU-D
Calendar mode   : Mixed Julian/Gregorian
Output type     : GEOMETRIC cartesian states
Output format   : 3 (position, velocity, LT, range, range-rate)
EOP file        : eop.260402.p260629
EOP coverage    : DATA-BASED 1962-JAN-20 TO 2026-APR-02. PREDICTS-> 2026-JUN-28
Reference frame : Ecliptic of J2000.0
*******************************************************************************
            JDTDB,            Calendar Date (TDB),                      X,                      Y,                      Z,                     VX,                     VY,                     VZ,                     LT,                     RG,                     RR,
**************************************************************************************************************************************************************************************************************************************************************************
$$SOE
2461247.053472220, A.D. 2026-Jul-25 13:16:59.9998,  4.095149686649010E-01,  1.981273425927764E+00,  1.353269625109837E-04, -2.440407055733862E-02,  1.123094562542993E-03,  4.641321237416375E-04,  1.168475560412603E-02,  2.023152716964673E+00, -3.839854452549120E-03,
2461247.095138886, A.D. 2026-Jul-25 14:16:59.9998,  4.084981889184383E-01,  1.981319921766793E+00,  1.546659096144463E-04, -2.440135584519697E-02,  1.108706255898191E-03,  4.641373229846676E-04,  1.168383136955162E-02,  2.022992690708783E+00, -3.841405916684151E-03,
2461247.136805553, A.D. 2026-Jul-25 15:16:59.9998,  4.074815224634563E-01,  1.981365818161134E+00,  1.740050715486967E-04, -2.439863256574337E-02,  1.094321216733434E-03,  4.641424349775151E-04,  1.168290676155985E-02,  2.022832599797680E+00, -3.842957903996280E-03,
2461247.178472220, A.D. 2026-Jul-25 16:16:59.9998,  4.064649696570122E-01,  1.981411115246883E+00,  1.933444445893877E-04, -2.439590071447446E-02,  1.079939443853683E-03,  4.641474553300153E-04,  1.168198178002417E-02,  2.022672444209454E+00, -3.844510418752663E-03,
2461247.220138886, A.D. 2026-Jul-25 17:16:59.9998,  4.054485308563720E-01,  1.981455813160232E+00,  2.126840248299887E-04, -2.439316028659307E-02,  1.065560943175699E-03,  4.641523800457693E-04,  1.168105642481784E-02,  2.022512223922160E+00, -3.846063458212366E-03,
2461247.261805553, A.D. 2026-Jul-25 18:16:59.9998,  4.044322064189207E-01,  1.981499912037760E+00,  2.320238082454358E-04, -2.439041128206981E-02,  1.051185726646064E-03,  4.641572078710633E-04,  1.168013069581547E-02,  2.022351938914089E+00, -3.847617014693834E-03,
2461247.303472220, A.D. 2026-Jul-25 19:16:59.9998,  4.034159967018775E-01,  1.981543412016562E+00,  2.513637908416427E-04, -2.438765370902336E-02,  1.036813805757751E-03,  4.641619414377378E-04,  1.167920459289344E-02,  2.022191589163836E+00, -3.849171082583812E-03,
2461247.345138886, A.D. 2026-Jul-25 20:16:59.9998,  4.023999020619846E-01,  1.981586313234069E+00,  2.707039687895743E-04, -2.438488758109744E-02,  1.022445184225928E-03,  4.641665854634717E-04,  1.167827811592853E-02,  2.022031174650066E+00, -3.850725664970306E-03,
2461247.386805553, A.D. 2026-Jul-25 21:16:59.9998,  4.013839228554524E-01,  1.981628615827665E+00,  2.900443384247477E-04, -2.438211290897780E-02,  1.008079856669945E-03,  4.641711425838922E-04,  1.167735126479565E-02,  2.021870695351119E+00, -3.852280773241479E-03,
2461247.428472220, A.D. 2026-Jul-25 22:16:59.9998,  4.003680594381808E-01,  1.981670319934427E+00,  3.093848961218262E-04, -2.437932969663399E-02,  9.937178150070051E-04,  4.641756120215286E-04,  1.167642403936668E-02,  2.021710151244813E+00, -3.853836420089536E-03,
2461247.470138886, A.D. 2026-Jul-25 23:16:59.9998,  3.993523121660449E-01,  1.981711425691144E+00,  3.287256381594507E-04, -2.437653794171060E-02,  9.793590540618509E-04,  4.641799901880707E-04,  1.167549643951086E-02,  2.021549542308508E+00, -3.855392614109921E-03,
2461247.511805553, A.D. 2026-Jul-26 00:16:59.9998,  3.983366813950922E-01,  1.981751933234510E+00,  3.480665606400555E-04, -2.437373763891736E-02,  9.650035749671465E-04,  4.641842725624883E-04,  1.167456846509614E-02,  2.021388868519342E+00, -3.856949357151256E-03,
2461247.553472220, A.D. 2026-Jul-26 01:16:59.9998,  3.973211674815732E-01,  1.981791842701415E+00,  3.674076594975379E-04, -2.437092878462330E-02,  9.506513858414841E-04,  4.641884559458261E-04,  1.167364011599087E-02,  2.021228129854515E+00, -3.858506644557015E-03,
2461247.595138886, A.D. 2026-Jul-26 02:16:59.9998,  3.963057707817875E-01,  1.981831154229207E+00,  3.867489305903920E-04, -2.436811138090710E-02,  9.363024996295528E-04,  4.641925402453415E-04,  1.167271139206503E-02,  2.021067326291520E+00, -3.860064468067353E-03,
2461247.636805553, A.D. 2026-Jul-26 03:16:59.9998,  3.952904916517542E-01,  1.981869867955723E+00,  4.060903698628743E-04, -2.436528543876209E-02,  9.219569254967191E-04,  4.641965293767888E-04,  1.167178229319012E-02,  2.020906457808107E+00, -3.861622824864693E-03,
2461247.678472220, A.D. 2026-Jul-26 04:16:59.9998,  3.942753304469636E-01,  1.981907984019005E+00,  4.254319734435163E-04, -2.436245097120555E-02,  9.076146636785754E-04,  4.642004275773848E-04,  1.167085281923725E-02,  2.020745524381955E+00, -3.863181721259221E-03,
2461247.720138886, A.D. 2026-Jul-26 05:16:59.9998,  3.932602875224389E-01,  1.981945502556934E+00,  4.447737375884478E-04, -2.435960798685958E-02,  8.932757069296383E-04,  4.642042364326378E-04,  1.166992297007508E-02,  2.020584525990330E+00, -3.864741170020158E-03,
2461247.761805553, A.D. 2026-Jul-26 06:16:59.9998,  3.922453632329947E-01,  1.981982423707044E+00,  4.641156585451322E-04, -2.435675648694664E-02,  8.789400475195625E-04,  4.642079539516202E-04,  1.166899274556917E-02,  2.020423462609950E+00, -3.866301182947497E-03,
2461247.803472220, A.D. 2026-Jul-26 07:16:59.9998,  3.912305579335178E-01,  1.982018747606648E+00,  4.834577324264628E-04, -2.435389646758916E-02,  8.646076824888875E-04,  4.642115760588240E-04,  1.166806214558291E-02,  2.020262334217162E+00, -3.867861766182117E-03,
